ALOS-2                  
1 39766U 14029A   26155.55943948  .00001755  00000+0  24177-3 0  9994
2 39766  97.9217 252.9044 0001603  94.8920 265.2475 14.79487434649715
KAZEOSAT 2              
1 40010U 14033A   26155.90304770  .00000592  00000+0  74473-4 0  9999
2 40010  97.5408 356.1636 0009005  10.1359 350.0037 14.85454127647133
HODOYOSHI-4             
1 40011U 14033B   26155.93076436  .00001865  00000+0  20745-3 0  9994
2 40011  97.5448 341.3452 0023527 350.1280   9.9472 14.88099845646985
DEIMOS-2                
1 40013U 14033D   26155.92415897  .00001894  00000+0  18426-3 0  9998
2 40013  97.5836  30.8430 0001923  58.9602 301.1807 14.93689254635893
HODOYOSHI-3             
1 40015U 14033F   26155.52053511  .00001304  00000+0  15614-3 0  9999
2 40015  97.6408 319.0722 0033779  38.5097 321.8519 14.85361735645749
SPOT 7                  
1 40053U 14034A   26155.99048869  .00000460  00000+0  10312-3 0  9995
2 40053  98.0629 218.7958 0001181  82.6638 277.4697 14.60947252635356
SKYSAT-B                
1 40072U 14037D   26155.75215838  .00001688  00000+0  19066-3 0  9993
2 40072  98.3831 114.0090 0004800 332.2281  27.8677 14.87994906644115
WORLDVIEW-3 (WV-3)      
1 40115U 14048A   26155.90406461  .00001054  00000+0  12984-3 0  9993
2 40115  97.8567 230.9065 0001885  44.8535 315.2832 14.85001470640083
GAOFEN-2                
1 40118U 14049A   26155.94655390  .00000981  00000+0  13388-3 0  9995
2 40118  98.0111 220.1650 0005893 275.8145  84.2396 14.80886490637421
YAOGAN-21               
1 40143U 14053A   26155.96826972  .00007305  00000+0  28481-3 0  9993
2 40143  97.1479 196.7294 0009598 128.6024 231.6077 15.26186127653091
YAOGAN-22               
1 40275U 14063A   26155.25700755 -.00000061  00000+0 -38250-4 0  9992
2 40275 100.7709 306.3162 0006044 214.9826 145.0889 13.15530671558118
ASNARO                  
1 40298U 14070A   26155.77759794  .00008680  00000+0  40671-3 0  9991
2 40298  97.3449 232.2295 0004004 164.9559 195.1796 15.19927087642125
YAOGAN-24               
1 40310U 14072A   26155.94918498  .00000899  00000+0  13750-3 0  9997
2 40310  98.1478 293.1845 0012868 306.9231  53.0799 14.76206939621917
CBERS 4                 
1 40336U 14079A   26155.97876302  .00000132  00000+0  60450-4 0  9992
2 40336  98.3533 213.1927 0002082  76.6357 283.5061 14.35505662602202
YAOGAN-26               
1 40362U 14088A   26155.97381976  .00031322  00000+0  62334-3 0  9996
2 40362  97.0645 156.4736 0006711  94.0035 266.1983 15.46847546635814
SMAP                    
1 40376U 15003A   26155.90885941  .00000529  00000+0  11157-3 0  9995
2 40376  98.1276 163.1774 0001255  90.6364 269.4982 14.63355606605825
KOMPSAT-3A              
1 40536U 15014A   26155.94063649  .00027512  00000+0  40745-3 0  9998
2 40536  97.6888 146.4135 0055388 219.3237 140.3988 15.53422107619915
SENTINEL-2A             
1 40697U 15028A   26155.90699922  .00000103  00000+0  55793-4 0  9993
2 40697  98.5683 230.9324 0001056  85.4150 274.7153 14.30819874571978
GAOFEN-8                
1 40701U 15030A   26155.91730833  .00026763  00000+0  55831-3 0  9992
2 40701  97.6908 348.5557 0007782 233.9579 126.0948 15.45500016609554
CARBONITE 1 (CBNT-1)    
1 40718U 15032D   26155.97471334  .00001755  00000+0  21895-3 0  9993
2 40718  97.6501 334.5531 0014144 340.8543  19.2139 14.83547958587532
YAOGAN-27               
1 40878U 15040A   26155.94124704  .00000246  00000+0  75923-3 0  9997
2 40878 100.1148 142.8557 0007444 241.0789 118.9578 13.16069661516051
GAOFEN-9 01             
1 40894U 15047A   26155.98394911  .00001148  00000+0  14716-3 0  9990
2 40894  97.6286 192.2328 0027420 176.9160 183.2229 14.82860327578386
YAOGAN-28               
1 41026U 15064A   26155.94032876  .00007898  00000+0  29807-3 0  9997
2 41026  97.3065 294.4540 0009610 228.4782 131.5634 15.27255233588810
YAOGAN-29               
1 41038U 15069A   26155.96604993  .00000576  00000+0  77409-4 0  9990
2 41038  98.0027 184.5792 0002951  74.6189 285.5350 14.83074525568817
KENT RIDGE 1            
1 41167U 15077B   26151.92243609  .00004809  00000+0  16665-3 0  9996
2 41167  14.9811  26.9327 0008386   8.7098 351.3369 15.23022815578617
GAOFEN-4                
1 41194U 15083A   26155.94251235 -.00000322  00000+0  00000+0 0  9992
2 41194   0.3259  83.7927 0004308 109.1335 145.4588  1.00270147 38405
JASON-3                 
1 41240U 16002A   26155.88613330 -.00000056  00000+0  26514-4 0  9994
2 41240  66.0389 151.6970 0008605 273.2702  86.7332 12.87627756485665
SENTINEL-3A             
1 41335U 16011A   26155.94383845  .00000137  00000+0  74642-4 0  9995
2 41335  98.6251 223.5028 0001311 105.6839 254.4486 14.26736575536316
ZIYUAN 3-02 (ZY 3-02)   
1 41556U 16033A   26155.95647843  .00006560  00000+0  29529-3 0  9995
2 41556  97.3832 231.9644 0011929 337.8599  22.2121 15.21358504556123
CARTOSAT-2C             
1 41599U 16040A   26155.34876501  .00003511  00000+0  16985-3 0  9993
2 41599  97.4487 215.5025 0009537 171.8851 188.2540 15.19210003551768
