OBJECT_NAME,OBJECT_ID,EPOCH,MEAN_MOTION,ECCENTRICITY,INCLINATION,RA_OF_ASC_NODE,ARG_OF_PERICENTER,MEAN_ANOMALY,EPHEMERIS_TYPE,CLASSIFICATION_TYPE,NORAD_CAT_ID,ELEMENT_SET_NO,REV_AT_EPOCH,BSTAR,MEAN_MOTION_DOT,MEAN_MOTION_DDOT
ALOS-2,2014-029A,2026-06-04T13:25:35.571072,14.79487434,.0001603,97.9217,252.9044,94.8920,265.2475,0,U,39766,999,64971,.24177425E-3,.1755E-4,0
KAZEOSAT 2,2014-033A,2026-06-04T21:40:23.321280,14.85454127,.00090051,97.5408,356.1636,10.1359,350.0037,0,U,40010,999,64713,.74473394E-4,.592E-5,0
HODOYOSHI-4,2014-033B,2026-06-04T22:20:18.040704,14.88099845,.00235279,97.5448,341.3452,350.1280,9.9472,0,U,40011,999,64698,.2074485E-3,.1865E-4,0
DEIMOS-2,2014-033D,2026-06-04T22:10:47.335008,14.93689254,.00019235,97.5836,30.8430,58.9602,301.1807,0,U,40013,999,63589,.18425856E-3,.1894E-4,0
HODOYOSHI-3,2014-033F,2026-06-04T12:29:34.233504,14.85361735,.0033779,97.6408,319.0722,38.5097,321.8519,0,U,40015,999,64574,.15614144E-3,.1304E-4,0
SPOT 7,2014-034A,2026-06-04T23:46:18.222816,14.60947252,.00011812,98.0629,218.7958,82.6638,277.4697,0,U,40053,999,63535,.10312073E-3,.46E-5,0
SKYSAT-B,2014-037D,2026-06-04T18:03:06.484032,14.87994906,.00048007,98.3831,114.0090,332.2281,27.8677,0,U,40072,999,64411,.19066137E-3,.1688E-4,0
WORLDVIEW-3 (WV-3),2014-048A,2026-06-04T21:41:51.182304,14.85001470,.00018858,97.8567,230.9065,44.8535,315.2832,0,U,40115,999,64008,.12984043E-3,.1054E-4,0
GAOFEN-2,2014-049A,2026-06-04T22:43:02.256960,14.80886490,.00058935,98.0111,220.1650,275.8145,84.2396,0,U,40118,999,63742,.13388126E-3,.981E-5,0
YAOGAN-21,2014-053A,2026-06-04T23:14:18.503808,15.26186127,.00095989,97.1479,196.7294,128.6024,231.6077,0,U,40143,999,65309,.28480781E-3,.7305E-4,0
YAOGAN-22,2014-063A,2026-06-04T06:10:05.452320,13.15530671,.00060442,100.7709,306.3162,214.9826,145.0889,0,U,40275,999,55811,-.38249799E-4,-.61E-6,0
ASNARO,2014-070A,2026-06-04T18:39:44.462016,15.19927087,.00040045,97.3449,232.2295,164.9559,195.1796,0,U,40298,999,64212,.40670654E-3,.868E-4,0
YAOGAN-24,2014-072A,2026-06-04T22:46:49.582272,14.76206939,.00128681,98.1478,293.1845,306.9231,53.0799,0,U,40310,999,62191,.13750101E-3,.899E-5,0
CBERS 4,2014-079A,2026-06-04T23:29:25.124928,14.35505662,.00020825,98.3533,213.1927,76.6357,283.5061,0,U,40336,999,60220,.60450343E-4,.132E-5,0
YAOGAN-26,2014-088A,2026-06-04T23:22:18.027264,15.46847546,.00067117,97.0645,156.4736,94.0035,266.1983,0,U,40362,999,63581,.62334333E-3,.31322E-3,0
SMAP,2015-003A,2026-06-04T21:48:45.453024,14.63355606,.00012556,98.1276,163.1774,90.6364,269.4982,0,U,40376,999,60582,.11156901E-3,.529E-5,0
KOMPSAT-3A,2015-014A,2026-06-04T22:34:30.992736,15.53422107,.00553884,97.6888,146.4135,219.3237,140.3988,0,U,40536,999,61991,.40744654E-3,.27512E-3,0
SENTINEL-2A,2015-028A,2026-06-04T21:46:04.732608,14.30819874,.0001056,98.5683,230.9324,85.4150,274.7153,0,U,40697,999,57197,.55792909E-4,.103E-5,0
GAOFEN-8,2015-030A,2026-06-04T22:00:55.439712,15.45500016,.00077824,97.6908,348.5557,233.9579,126.0948,0,U,40701,999,60955,.55830575E-3,.26763E-3,0
CARBONITE 1 (CBNT-1),2015-032D,2026-06-04T23:23:35.232576,14.83547958,.00141445,97.6501,334.5531,340.8543,19.2139,0,U,40718,999,58753,.21895265E-3,.1755E-4,0
YAOGAN-27,2015-040A,2026-06-04T22:35:23.744256,13.16069661,.00074441,100.1148,142.8557,241.0789,118.9578,0,U,40878,999,51605,.75922779E-3,.246E-5,0
GAOFEN-9 01,2015-047A,2026-06-04T23:36:53.203104,14.82860327,.00274204,97.6286,192.2328,176.9160,183.2229,0,U,40894,999,57838,.14715752E-3,.1148E-4,0
YAOGAN-28,2015-064A,2026-06-04T22:34:04.404864,15.27255233,.00096108,97.3065,294.4540,228.4782,131.5634,0,U,41026,999,58881,.29806558E-3,.7898E-4,0
YAOGAN-29,2015-069A,2026-06-04T23:11:06.713952,14.83074525,.00029518,98.0027,184.5792,74.6189,285.5350,0,U,41038,999,56881,.77409072E-4,.576E-5,0
KENT RIDGE 1,2015-077B,2026-05-31T22:08:18.478176,15.23022815,.00083865,14.9811,26.9327,8.7098,351.3369,0,U,41167,999,57861,.16664618E-3,.4809E-4,0
GAOFEN-4,2015-083A,2026-06-04T22:37:13.067040,1.00270147,.00043086,0.3259,83.7927,109.1335,145.4588,0,U,41194,999,3840,0,-.322E-5,0
JASON-3,2016-002A,2026-06-04T21:16:01.917120,12.87627756,.00086058,66.0389,151.6970,273.2702,86.7332,0,U,41240,999,48566,.2651428E-4,-.56E-6,0
SENTINEL-3A,2016-011A,2026-06-04T22:39:07.642080,14.26736575,.00013117,98.6251,223.5028,105.6839,254.4486,0,U,41335,999,53631,.74641513E-4,.137E-5,0
ZIYUAN 3-02 (ZY 3-02),2016-033A,2026-06-04T22:57:19.736352,15.21358504,.0011929,97.3832,231.9644,337.8599,22.2121,0,U,41556,999,55612,.29528513E-3,.656E-4,0
CARTOSAT-2C,2016-040A,2026-06-04T08:22:13.296864,15.19210003,.00095375,97.4487,215.5025,171.8851,188.2540,0,U,41599,999,55176,.16984553E-3,.3511E-4,0
